AQUA                    
1 27424U 02022A   26072.59681830  .00001260  00000+0  26129-3 0  9993
2 27424  98.4179  40.0330 0000592  95.5790  24.1351 14.61987843269307
CZ-4B R/B               
1 27432U 02024C   26072.62741574  .00000054  00000+0  50484-4 0  9992
2 27432  98.8831 126.0141 0050293  13.0888 140.1243 14.14548464229794
MIDORI II (ADEOS-II)    
1 27597U 02056A   26072.30393977  .00000377  00000+0  16588-3 0  9998
2 27597  98.7772  30.8065 0001456  38.7795 321.3491 14.29288390210810
H-2A R/B                
1 27601U 02056E   26072.35566478  .00000317  00000+0  12528-3 0  9991
2 27601  98.3206  32.5818 0070728 149.8070  11.4817 14.33763489214632
CZ-4B R/B               
1 28059U 03049C   26072.44082026  .00000454  00000+0  11573-3 0  9995
2 28059  98.6880  67.4928 0047399 219.2185 140.5574 14.55024203187144
CZ-2C R/B               
1 28222U 04012C   26072.12645194  .00059904  00000+0  60765-3 0  9995
2 28222  97.7223 137.7453 0012933 295.2646  64.7272 15.64944388204815
SL-16 R/B               
1 28353U 04021B   26072.41691379 -.00000281  00000+0 -12159-3 0  9998
2 28353  70.9996 224.6701 0004293   3.8877 356.2278 14.14596418123367
CZ-4B R/B               
1 28415U 04035C   26072.05034561  .00008901  00000+0  31307-3 0  9997
2 28415  97.3502 106.2529 0030674 319.1566  40.7375 15.29127340180429
CZ-2C R/B               
1 28480U 04046B   26072.27198713  .00000139  00000+0  66338-4 0  9993
2 28480  98.1981 347.0330 0140076 143.8905 217.1837 14.26993446109016
ARIANE 5 R/B            
1 28499U 04049H   26072.47263971  .00000890  00000+0  10454-3 0  9998
2 28499  98.2632 241.0713 0083669 339.6305  20.1578 14.85273670146358
CZ-2D R/B               
1 28738U 05024B   26072.49313059  .00046944  00000+0  56863-3 0  9997
2 28738  97.3596  87.7799 0005214  37.0057 323.1559 15.60514072140374
ALOS (DAICHI)           
1 28931U 06002A   26072.31521966  .00001674  00000+0  28852-3 0  9996
2 28931  98.1221  28.2525 0000810  63.5750 296.5539 14.69823673 74017
