CCSDS_OMM_VERS = 2.0
CREATION_DATE  = 
ORIGINATOR     = 

OBJECT_NAME    = AQUA
OBJECT_ID      = 2002-022A
CENTER_NAME    = EARTH
REF_FRAME      = TEME
TIME_SYSTEM    = UTC
MEAN_ELEMENT_THEORY = SGP/SGP4

EPOCH          = 2026-03-13T14:19:25.101120
MEAN_MOTION    = 14.61987843
ECCENTRICITY   = .00005928
INCLINATION    = 98.4179
RA_OF_ASC_NODE = 40.0330
ARG_OF_PERICENTER = 95.5790
MEAN_ANOMALY   = 24.1351

EPHEMERIS_TYPE = 0
CLASSIFICATION_TYPE = U
NORAD_CAT_ID   = 27424
ELEMENT_SET_NO = 999
REV_AT_EPOCH   = 26930
BSTAR          = .26128622E-3
MEAN_MOTION_DOT = .126E-4
MEAN_MOTION_DDOT = 0

CCSDS_OMM_VERS = 2.0
CREATION_DATE  = 
ORIGINATOR     = 

OBJECT_NAME    = CZ-4B R/B
OBJECT_ID      = 2002-024C
CENTER_NAME    = EARTH
REF_FRAME      = TEME
TIME_SYSTEM    = UTC
MEAN_ELEMENT_THEORY = SGP/SGP4

EPOCH          = 2026-03-13T15:03:28.719936
MEAN_MOTION    = 14.14548464
ECCENTRICITY   = .00502938
INCLINATION    = 98.8831
RA_OF_ASC_NODE = 126.0141
ARG_OF_PERICENTER = 13.0888
MEAN_ANOMALY   = 140.1243

EPHEMERIS_TYPE = 0
CLASSIFICATION_TYPE = U
NORAD_CAT_ID   = 27432
ELEMENT_SET_NO = 999
REV_AT_EPOCH   = 22979
BSTAR          = .50484332E-4
MEAN_MOTION_DOT = .54E-6
MEAN_MOTION_DDOT = 0

CCSDS_OMM_VERS = 2.0
CREATION_DATE  = 
ORIGINATOR     = 

OBJECT_NAME    = MIDORI II (ADEOS-II)
OBJECT_ID      = 2002-056A
CENTER_NAME    = EARTH
REF_FRAME      = TEME
TIME_SYSTEM    = UTC
MEAN_ELEMENT_THEORY = SGP/SGP4

EPOCH          = 2026-03-13T07:17:40.396128
MEAN_MOTION    = 14.29288390
ECCENTRICITY   = .00014565
INCLINATION    = 98.7772
RA_OF_ASC_NODE = 30.8065
ARG_OF_PERICENTER = 38.7795
MEAN_ANOMALY   = 321.3491

EPHEMERIS_TYPE = 0
CLASSIFICATION_TYPE = U
NORAD_CAT_ID   = 27597
ELEMENT_SET_NO = 999
REV_AT_EPOCH   = 21081
BSTAR          = .16588023E-3
MEAN_MOTION_DOT = .377E-5
MEAN_MOTION_DDOT = 0

CCSDS_OMM_VERS = 2.0
CREATION_DATE  = 
ORIGINATOR     = 

OBJECT_NAME    = H-2A R/B
OBJECT_ID      = 2002-056E
CENTER_NAME    = EARTH
REF_FRAME      = TEME
TIME_SYSTEM    = UTC
MEAN_ELEMENT_THEORY = SGP/SGP4

EPOCH          = 2026-03-13T08:32:09.436992
MEAN_MOTION    = 14.33763489
ECCENTRICITY   = .0070728
INCLINATION    = 98.3206
RA_OF_ASC_NODE = 32.5818
ARG_OF_PERICENTER = 149.8070
MEAN_ANOMALY   = 11.4817

EPHEMERIS_TYPE = 0
CLASSIFICATION_TYPE = U
NORAD_CAT_ID   = 27601
ELEMENT_SET_NO = 999
REV_AT_EPOCH   = 21463
BSTAR          = .12528284E-3
MEAN_MOTION_DOT = .317E-5
MEAN_MOTION_DDOT = 0

CCSDS_OMM_VERS = 2.0
CREATION_DATE  = 
ORIGINATOR     = 

OBJECT_NAME    = CZ-4B R/B
OBJECT_ID      = 2003-049C
CENTER_NAME    = EARTH
REF_FRAME      = TEME
TIME_SYSTEM    = UTC
MEAN_ELEMENT_THEORY = SGP/SGP4

EPOCH          = 2026-03-13T10:34:46.870464
MEAN_MOTION    = 14.55024203
ECCENTRICITY   = .00473992
INCLINATION    = 98.6880
RA_OF_ASC_NODE = 67.4928
ARG_OF_PERICENTER = 219.2185
MEAN_ANOMALY   = 140.5574

EPHEMERIS_TYPE = 0
CLASSIFICATION_TYPE = U
NORAD_CAT_ID   = 28059
ELEMENT_SET_NO = 999
REV_AT_EPOCH   = 18714
BSTAR          = .11573354E-3
MEAN_MOTION_DOT = .454E-5
MEAN_MOTION_DDOT = 0

CCSDS_OMM_VERS = 2.0
CREATION_DATE  = 
ORIGINATOR     = 

OBJECT_NAME    = CZ-2C R/B
OBJECT_ID      = 2004-012C
CENTER_NAME    = EARTH
REF_FRAME      = TEME
TIME_SYSTEM    = UTC
MEAN_ELEMENT_THEORY = SGP/SGP4

EPOCH          = 2026-03-13T03:02:05.447616
MEAN_MOTION    = 15.64944388
ECCENTRICITY   = .00129338
INCLINATION    = 97.7223
RA_OF_ASC_NODE = 137.7453
ARG_OF_PERICENTER = 295.2646
MEAN_ANOMALY   = 64.7272

EPHEMERIS_TYPE = 0
CLASSIFICATION_TYPE = U
NORAD_CAT_ID   = 28222
ELEMENT_SET_NO = 999
REV_AT_EPOCH   = 20481
BSTAR          = .60765345E-3
MEAN_MOTION_DOT = .59904E-3
MEAN_MOTION_DDOT = 0

CCSDS_OMM_VERS = 2.0
CREATION_DATE  = 
ORIGINATOR     = 

OBJECT_NAME    = SL-16 R/B
OBJECT_ID      = 2004-021B
CENTER_NAME    = EARTH
REF_FRAME      = TEME
TIME_SYSTEM    = UTC
MEAN_ELEMENT_THEORY = SGP/SGP4

EPOCH          = 2026-03-13T10:00:21.351456
MEAN_MOTION    = 14.14596418
ECCENTRICITY   = .0004293
INCLINATION    = 70.9996
RA_OF_ASC_NODE = 224.6701
ARG_OF_PERICENTER = 3.8877
MEAN_ANOMALY   = 356.2278

EPHEMERIS_TYPE = 0
CLASSIFICATION_TYPE = U
NORAD_CAT_ID   = 28353
ELEMENT_SET_NO = 999
REV_AT_EPOCH   = 12336
BSTAR          = -.12158589E-3
MEAN_MOTION_DOT = -.281E-5
MEAN_MOTION_DDOT = 0

CCSDS_OMM_VERS = 2.0
CREATION_DATE  = 
ORIGINATOR     = 

OBJECT_NAME    = CZ-4B R/B
OBJECT_ID      = 2004-035C
CENTER_NAME    = EARTH
REF_FRAME      = TEME
TIME_SYSTEM    = UTC
MEAN_ELEMENT_THEORY = SGP/SGP4

EPOCH          = 2026-03-13T01:12:29.860704
MEAN_MOTION    = 15.29127340
ECCENTRICITY   = .00306741
INCLINATION    = 97.3502
RA_OF_ASC_NODE = 106.2529
ARG_OF_PERICENTER = 319.1566
MEAN_ANOMALY   = 40.7375

EPHEMERIS_TYPE = 0
CLASSIFICATION_TYPE = U
NORAD_CAT_ID   = 28415
ELEMENT_SET_NO = 999
REV_AT_EPOCH   = 18042
BSTAR          = .31306751E-3
MEAN_MOTION_DOT = .8901E-4
MEAN_MOTION_DDOT = 0

CCSDS_OMM_VERS = 2.0
CREATION_DATE  = 
ORIGINATOR     = 

OBJECT_NAME    = CZ-2C R/B
OBJECT_ID      = 2004-046B
CENTER_NAME    = EARTH
REF_FRAME      = TEME
TIME_SYSTEM    = UTC
MEAN_ELEMENT_THEORY = SGP/SGP4

EPOCH          = 2026-03-13T06:31:39.688032
MEAN_MOTION    = 14.26993446
ECCENTRICITY   = .01400767
INCLINATION    = 98.1981
RA_OF_ASC_NODE = 347.0330
ARG_OF_PERICENTER = 143.8905
MEAN_ANOMALY   = 217.1837

EPHEMERIS_TYPE = 0
CLASSIFICATION_TYPE = U
NORAD_CAT_ID   = 28480
ELEMENT_SET_NO = 999
REV_AT_EPOCH   = 10901
BSTAR          = .66337767E-4
MEAN_MOTION_DOT = .139E-5
MEAN_MOTION_DDOT = 0

CCSDS_OMM_VERS = 2.0
CREATION_DATE  = 
ORIGINATOR     = 

OBJECT_NAME    = ARIANE 5 R/B
OBJECT_ID      = 2004-049H
CENTER_NAME    = EARTH
REF_FRAME      = TEME
TIME_SYSTEM    = UTC
MEAN_ELEMENT_THEORY = SGP/SGP4

EPOCH          = 2026-03-13T11:20:36.070944
MEAN_MOTION    = 14.85273670
ECCENTRICITY   = .00836693
INCLINATION    = 98.2632
RA_OF_ASC_NODE = 241.0713
ARG_OF_PERICENTER = 339.6305
MEAN_ANOMALY   = 20.1578

EPHEMERIS_TYPE = 0
CLASSIFICATION_TYPE = U
NORAD_CAT_ID   = 28499
ELEMENT_SET_NO = 999
REV_AT_EPOCH   = 14635
BSTAR          = .10454232E-3
MEAN_MOTION_DOT = .89E-5
MEAN_MOTION_DDOT = 0

CCSDS_OMM_VERS = 2.0
CREATION_DATE  = 
ORIGINATOR     = 

OBJECT_NAME    = CZ-2D R/B
OBJECT_ID      = 2005-024B
CENTER_NAME    = EARTH
REF_FRAME      = TEME
TIME_SYSTEM    = UTC
MEAN_ELEMENT_THEORY = SGP/SGP4

EPOCH          = 2026-03-13T11:50:06.482976
MEAN_MOTION    = 15.60514072
ECCENTRICITY   = .00052146
INCLINATION    = 97.3596
RA_OF_ASC_NODE = 87.7799
ARG_OF_PERICENTER = 37.0057
MEAN_ANOMALY   = 323.1559

EPHEMERIS_TYPE = 0
CLASSIFICATION_TYPE = U
NORAD_CAT_ID   = 28738
ELEMENT_SET_NO = 999
REV_AT_EPOCH   = 14037
BSTAR          = .56863087E-3
MEAN_MOTION_DOT = .46944E-3
MEAN_MOTION_DDOT = 0

CCSDS_OMM_VERS = 2.0
CREATION_DATE  = 
ORIGINATOR     = 

OBJECT_NAME    = ALOS (DAICHI)
OBJECT_ID      = 2006-002A
CENTER_NAME    = EARTH
REF_FRAME      = TEME
TIME_SYSTEM    = UTC
MEAN_ELEMENT_THEORY = SGP/SGP4

EPOCH          = 2026-03-13T07:33:54.978624
MEAN_MOTION    = 14.69823673
ECCENTRICITY   = .00008104
INCLINATION    = 98.1221
RA_OF_ASC_NODE = 28.2525
ARG_OF_PERICENTER = 63.5750
MEAN_ANOMALY   = 296.5539

EPHEMERIS_TYPE = 0
CLASSIFICATION_TYPE = U
NORAD_CAT_ID   = 28931
ELEMENT_SET_NO = 999
REV_AT_EPOCH   = 7401
BSTAR          = .2885247E-3
MEAN_MOTION_DOT = .1674E-4
MEAN_MOTION_DDOT = 0

